HERMES-3                
1 63835U 25052BR  26068.93751242  .00020316  00000+0  69958-3 0  9995
2 63835  97.3987 324.6131 0007993 112.9583 247.2502 15.30039785 54863
STARLINK-35339          
1 66028U 25232Z   26068.36482889  .00023824  00000+0  81322-3 0  9993
2 66028  53.1593 105.5608 0001299  92.8221 267.2929 15.30227089 23380
