[{"OBJECT_NAME":"HERMES-3","OBJECT_ID":"2025-052BR","EPOCH":"2026-03-09T22:30:01.073952","MEAN_MOTION":15.30039786,"ECCENTRICITY":0.00079928,"INCLINATION":97.3987,"RA_OF_ASC_NODE":324.6131,"ARG_OF_PERICENTER":112.9583,"MEAN_ANOMALY":247.2502,"EPHEMERIS_TYPE":0,"CLASSIFICATION_TYPE":"U","NORAD_CAT_ID":63835,"ELEMENT_SET_NO":999,"REV_AT_EPOCH":5486,"BSTAR":0.0006995793,"MEAN_MOTION_DOT":0.00020316,"MEAN_MOTION_DDOT":0},{"OBJECT_NAME":"STARLINK-35339","OBJECT_ID":"2025-232Z","EPOCH":"2026-03-09T08:45:21.216096","MEAN_MOTION":15.30227089,"ECCENTRICITY":0.00012993,"INCLINATION":53.1593,"RA_OF_ASC_NODE":105.5608,"ARG_OF_PERICENTER":92.8221,"MEAN_ANOMALY":267.2929,"EPHEMERIS_TYPE":0,"CLASSIFICATION_TYPE":"U","NORAD_CAT_ID":66028,"ELEMENT_SET_NO":999,"REV_AT_EPOCH":2338,"BSTAR":0.00081322377,"MEAN_MOTION_DOT":0.00023824,"MEAN_MOTION_DDOT":0}]
